{
    "links": {
        "self": "http://www.neowsapp.com/rest/v1/neo/3986806?api_key=iIulBulltgU6a56xZRHN4H3l9WmuAYTsLGpBGhQ2"
    },
    "id": "3986806",
    "neo_reference_id": "3986806",
    "name": "(2020 BD2)",
    "designation": "2020 BD2",
    "nasa_jpl_url": "http://ssd.jpl.nasa.gov/sbdb.cgi?sstr=3986806",
    "absolute_magnitude_h": 21.376,
    "estimated_diameter": {
        "kilometers": {
            "estimated_diameter_min": 0.1410441171,
            "estimated_diameter_max": 0.3153842337
        },
        "meters": {
            "estimated_diameter_min": 141.044117102,
            "estimated_diameter_max": 315.3842336664
        },
        "miles": {
            "estimated_diameter_min": 0.0876407241,
            "estimated_diameter_max": 0.1959706167
        },
        "feet": {
            "estimated_diameter_min": 462.7431811528,
            "estimated_diameter_max": 1034.7252091822
        }
    },
    "is_potentially_hazardous_asteroid": false,
    "close_approach_data": [
        {
            "close_approach_date": "2019-12-05",
            "close_approach_date_full": "2019-Dec-05 11:41",
            "epoch_date_close_approach": 1575546060000,
            "relative_velocity": {
                "kilometers_per_second": "14.0131182037",
                "kilometers_per_hour": "50447.2255332484",
                "miles_per_hour": "31345.944109812"
            },
            "miss_distance": {
                "astronomical": "0.1491818018",
                "lunar": "58.0317209002",
                "kilometers": "22317279.792042166",
                "miles": "13867314.6268512508"
            },
            "orbiting_body": "Earth"
        },
        {
            "close_approach_date": "2153-12-20",
            "close_approach_date_full": "2153-Dec-20 23:01",
            "epoch_date_close_approach": 5805558060000,
            "relative_velocity": {
                "kilometers_per_second": "14.3254181377",
                "kilometers_per_hour": "51571.505295733",
                "miles_per_hour": "32044.5278322292"
            },
            "miss_distance": {
                "astronomical": "0.1566240764",
                "lunar": "60.9267657196",
                "kilometers": "23430628.220157268",
                "miles": "14559117.2607675784"
            },
            "orbiting_body": "Earth"
        },
        {
            "close_approach_date": "2156-08-24",
            "close_approach_date_full": "2156-Aug-24 07:13",
            "epoch_date_close_approach": 5890000380000,
            "relative_velocity": {
                "kilometers_per_second": "10.6583337514",
                "kilometers_per_hour": "38370.0015048604",
                "miles_per_hour": "23841.626768395"
            },
            "miss_distance": {
                "astronomical": "0.1444443241",
                "lunar": "56.1888420749",
                "kilometers": "21608563.218949667",
                "miles": "13426938.5688407246"
            },
            "orbiting_body": "Venus"
        }
    ],
    "orbital_data": {
        "orbit_id": "3",
        "orbit_determination_date": "2020-02-14 04:58:54",
        "first_observation_date": "2020-01-18",
        "last_observation_date": "2020-02-14",
        "data_arc_in_days": 27,
        "observations_used": 35,
        "orbit_uncertainty": "7",
        "minimum_orbit_intersection": ".14845",
        "jupiter_tisserand_invariant": "3.633",
        "epoch_osculation": "2459000.5",
        "eccentricity": ".57490617839059",
        "semi_major_axis": "1.95512057367586",
        "inclination": "14.47919263914503",
        "ascending_node_longitude": "57.14446181718238",
        "orbital_period": "998.5245466866459",
        "perihelion_distance": ".8311096763710534",
        "perihelion_argument": "355.7524318375676",
        "aphelion_distance": "3.079131470980666",
        "perihelion_time": "2458810.141742026102",
        "mean_anomaly": "68.63023357612948",
        "mean_motion": ".3605319480573312",
        "equinox": "J2000",
        "orbit_class": {
            "orbit_class_type": "APO",
            "orbit_class_description": "Near-Earth asteroid orbits which cross the Earth’s orbit similar to that of 1862 Apollo",
            "orbit_class_range": "a (semi-major axis) > 1.0 AU; q (perihelion) < 1.017 AU"
        }
    },
    "is_sentry_object": false
}